IRIDIUM 119             
1 42959U 17061E   24123.57981488  .00000145  00000+0  44879-4 0  9991
2 42959  86.3991 349.3863 0002305  81.2133 278.9323 14.34223319343647
IRIDIUM 107             
1 42960U 17061F   24123.59887608 -.00000007  00000+0 -93916-5 0  9990
2 42960  86.3985 349.3942 0002081  78.9412 281.2017 14.34216697343653
IRIDIUM 132             
1 42961U 17061G   24123.60521649  .00000213  00000+0  68899-4 0  9991
2 42961  86.3989 349.3769 0002045  78.8986 281.2440 14.34216005343653
IRIDIUM 136             
1 42962U 17061H   24123.63693228  .00000318  00000+0  10658-3 0  9993
2 42962  86.3990 349.3666 0002475  85.2742 274.8736 14.34217504343674
IRIDIUM 139             
1 42963U 17061J   24123.57350349 -.00000059  00000+0 -28120-4 0  9999
2 42963  86.3988 349.4421 0001955  78.1750 281.9664 14.34217371343675
IRIDIUM 125             
1 42964U 17061K   24123.63058853  .00000213  00000+0  68929-4 0  9993
2 42964  86.3994 349.4656 0002475  80.1198 280.0277 14.34218025343699
IRIDIUM 135             
1 43070U 17083A   24123.53493360  .00000171  00000+0  54170-4 0  9997
2 43070  86.3921 286.1627 0001862 100.6914 259.4492 14.34216294332970
IRIDIUM 138             
1 43071U 17083B   24123.49054530  .00000238  00000+0  78095-4 0  9991
2 43071  86.3911 285.9042 0002316  87.2382 272.9078 14.34218592332953
